{
  "type":"FeatureCollection",
  "name":"Kelurahan Tingkir Tengah",
  "crs":{"type":"name","properties":{"name":"urn:ogc:def:crs:OGC:1.3:CRS84"}},
  "features":[{"type":"Feature","properties":{"fid":7747,"ori_name":"Tingkir Tengah","kode_kec":"33.73.02","kode_kd":"33.73.02.1006","kode_kk":"33.73","kode_prov":"33","tipe_kd":2,"kecamatan":"Tingkir","kel_desa":"Tingkir Tengah","kab_kota":"Kota Salatiga","provinsi":"Jawa Tengah","jenis_kd":"Kelurahan","nama":"Kelurahan Tingkir Tengah","label":"Kelurahan Tingkir Tengah, Kecamatan Tingkir, Kota Salatiga, Provinsi Jawa Tengah, 33.73.02.1006"},"geometry":{"type":"MultiPolygon","coordinates":[[[[110.53450492,-7.35879488299997,0],[110.534517922,-7.35884449899993,0],[110.534542194,-7.35892903199993,0],[110.534530847,-7.35897979799995,0],[110.534500837,-7.35901881999996,0],[110.534501907,-7.35907443199994,0],[110.534524678,-7.35913036199997,0],[110.534524863,-7.35913429199996,0],[110.534524325,-7.35919791899994,0],[110.534520147,-7.35925566999992,0],[110.534516893,-7.35929372999993,0],[110.534556534,-7.35932556499995,0],[110.534650436,-7.35939458999997,0],[110.534729019,-7.35944062299995,0],[110.534801853,-7.35948281999993,0],[110.534845646,-7.35950591499994,0],[110.534906505,-7.35954344899994,0],[110.534881497,-7.35958277899994,0],[110.53485063,-7.35965740799998,0],[110.534824159,-7.35972174799997,0],[110.534801513,-7.35978418499997,0],[110.534771607,-7.35986234399996,0],[110.534748071,-7.35991632699995,0],[110.534725245,-7.35997374599998,0],[110.534691557,-7.36003533399997,0],[110.534668483,-7.36008630199996,0],[110.534634494,-7.36015484999996,0],[110.534599593,-7.36021409499995,0],[110.534570056,-7.36027188299994,0],[110.53454608,-7.36031098399997,0],[110.534518678,-7.36036156899996,0],[110.534498087,-7.36039152699993,0],[110.534471443,-7.36044288599993,0],[110.534438342,-7.36048985199994,0],[110.534412217,-7.36054942099997,0],[110.534379061,-7.36060910299994,0],[110.534355532,-7.36066206399994,0],[110.534331498,-7.36071535799994,0],[110.534312835,-7.36076930399997,0],[110.53430521,-7.36081796099995,0],[110.53428602,-7.36088418099996,0],[110.534298471,-7.36091131599994,0],[110.534310754,-7.36093654599995,0],[110.534334321,-7.36095996899996,0],[110.534353171,-7.36102649699995,0],[110.534363626,-7.36107800899993,0],[110.534362983,-7.36112753699996,0],[110.534354159,-7.36119295299994,0],[110.534348438,-7.36125091599996,0],[110.534392538,-7.36129038099995,0],[110.534418534,-7.36132872299993,0],[110.534410124,-7.36137058199995,0],[110.534393906,-7.36142437599995,0],[110.534381518,-7.36147035999994,0],[110.534364468,-7.36151335299996,0],[110.534346282,-7.36156015299997,0],[110.534317719,-7.36163078899995,0],[110.534289034,-7.36168816799994,0],[110.534265254,-7.36172056299995,0],[110.534233448,-7.36174430899996,0],[110.534195929,-7.36176759799997,0],[110.534162714,-7.36180415499996,0],[110.534131959,-7.36186150999993,0],[110.534124418,-7.36190150199997,0],[110.534121145,-7.36195590099993,0],[110.534115378,-7.36199796499994,0],[110.533973726,-7.36199927099995,0],[110.533866208,-7.36199679699996,0],[110.533728117,-7.36199684899998,0],[110.533727685,-7.36199682599994,0],[110.533588137,-7.36198934299995,0],[110.53347376,-7.36198431899993,0],[110.533363481,-7.36197928699994,0],[110.533228717,-7.36197550199995,0],[110.53312131,-7.36197553299996,0],[110.533011299,-7.36197300999993,0],[110.532923847,-7.36197047399997,0],[110.532818462,-7.36196793699997,0],[110.532701994,-7.36196154399994,0],[110.532595155,-7.36195898899996,0],[110.532505838,-7.36195512499995,0],[110.532344584,-7.36195258499993,0],[110.532247616,-7.36195000699996,0],[110.532148095,-7.36195264199995,0],[110.53208813,-7.36195265999993,0],[110.532021787,-7.36195267899996,0],[110.531908968,-7.36194880099993,0],[110.531915326,-7.36204199899993,0],[110.53192806,-7.36212603599995,0],[110.531935456,-7.36218451799994,0],[110.531944493,-7.36224118199993,0],[110.531947371,-7.36230662699995,0],[110.531952439,-7.36237238499996,0],[110.531953949,-7.36242645499993,0],[110.531945499,-7.36247297499995,0],[110.53193004,-7.36251179299995,0],[110.531904368,-7.36258089999995,0],[110.531871967,-7.36257717399997,0],[110.531853222,-7.36257343199998,0],[110.531839327,-7.36255832799998,0],[110.531810022,-7.36254174999993,0],[110.531774528,-7.36254175999994,0],[110.531755098,-7.36256088399995,0],[110.53174644,-7.36258961399994,0],[110.531720515,-7.36261283199997,0],[110.53168952,-7.36262606999998,0],[110.531664552,-7.36263441699998,0],[110.531616112,-7.36263620499994,0],[110.531574044,-7.36264456999993,0],[110.53154178,-7.36266111699996,0],[110.531511028,-7.36267338499994,0],[110.531480844,-7.36268955099996,0],[110.531456095,-7.36270418299995,0],[110.531432176,-7.36273935299994,0],[110.531404461,-7.36275988299997,0],[110.531369014,-7.36277973599994,0],[110.531332147,-7.36278535899993,0],[110.531288484,-7.36278537199996,0],[110.531257836,-7.36278257899994,0],[110.531246591,-7.36275614599998,0],[110.531225609,-7.36273446599995,0],[110.531193367,-7.36271241399993,0],[110.531145122,-7.36268544399996,0],[110.531141558,-7.36273010999997,0],[110.53113966,-7.36277608799998,0],[110.531132265,-7.36279984699996,0],[110.531120049,-7.36281087599997,0],[110.531103446,-7.36280123899996,0],[110.531083721,-7.36280124499996,0],[110.531085773,-7.36282181299993,0],[110.531082279,-7.36285136999993,0],[110.531067831,-7.36287242699996,0],[110.531047757,-7.36289696299997,0],[110.531049021,-7.36289696299997,0],[110.53105279,-7.36293691899994,0],[110.531079448,-7.36298672199996,0],[110.531094552,-7.36303186999993,0],[110.531116895,-7.36306737899997,0],[110.531089845,-7.36308741699997,0],[110.531057946,-7.36309928799994,0],[110.531022584,-7.36311234199997,0],[110.530982179,-7.36311882299998,0],[110.530933082,-7.36312527799993,0],[110.530872224,-7.36312401099997,0],[110.53083179,-7.36312658899993,0],[110.530776865,-7.36312533099994,0],[110.530716049,-7.36312534899997,0],[110.530661501,-7.36312021899994,0],[110.530615667,-7.36311635899995,0],[110.530574938,-7.36311108299998,0],[110.530565725,-7.36310988999998,0],[110.530520194,-7.36311509299998,0],[110.530474849,-7.36312027699995,0],[110.530443665,-7.36313183099998,0],[110.530421728,-7.36314579699996,0],[110.530394672,-7.36317200599996,0],[110.530383439,-7.36321212799993,0],[110.530377905,-7.36326120499996,0],[110.53036715,-7.36330160199998,0],[110.530368453,-7.36334468999996,0],[110.530365116,-7.36339095899996,0],[110.530364901,-7.36339394199996,0],[110.530353479,-7.36342527099993,0],[110.530332991,-7.36344744499996,0],[110.530316826,-7.36345537299997,0],[110.530297855,-7.36346467699997,0],[110.530263195,-7.36348167599994,0],[110.530230271,-7.36349566899997,0],[110.530199185,-7.36351499299997,0],[110.530179571,-7.36355008399994,0],[110.530157,-7.36359063999993,0],[110.530129706,-7.36360089299995,0],[110.530085536,-7.36361736799995,0],[110.530098671,-7.36365521399995,0],[110.530111004,-7.36369401499996,0],[110.530104799,-7.36371966899998,0],[110.530091045,-7.36374479699998,0],[110.530071276,-7.36377069499997,0],[110.530048614,-7.36380613799997,0],[110.530007581,-7.36384299499997,0],[110.529971604,-7.36387244699995,0],[110.52993649,-7.36389871499995,0],[110.529897689,-7.36393891699993,0],[110.529859834,-7.36397496199993,0],[110.529826039,-7.36400065399994,0],[110.529788543,-7.36404530899995,0],[110.529740091,-7.36410820899994,0],[110.52969892,-7.36415907499998,0],[110.5296648,-7.36420012399998,0],[110.529630722,-7.36423350599995,0],[110.52959384,-7.36426720499998,0],[110.52957147,-7.36428793599993,0],[110.529553697,-7.36430288399993,0],[110.529525891,-7.36431670399998,0],[110.52951582,-7.36428611499997,0],[110.52950604,-7.36424897199993,0],[110.529511239,-7.36422259999995,0],[110.529506505,-7.36420020499997,0],[110.529479808,-7.36420772199995,0],[110.529450431,-7.36421668499997,0],[110.529421816,-7.36423880699994,0],[110.52937442,-7.36423882399993,0],[110.529351981,-7.36423297099998,0],[110.529325866,-7.36423737599995,0],[110.529300161,-7.36423738399998,0],[110.529261175,-7.36427913499995,0],[110.529225564,-7.36433045599995,0],[110.529204402,-7.36437317399998,0],[110.529189487,-7.36439912599997,0],[110.52915748,-7.36441696999998,0],[110.529102125,-7.36441191699993,0],[110.529079747,-7.36443331499993,0],[110.529061401,-7.36445064999998,0],[110.529045669,-7.36445851599996,0],[110.529009333,-7.36447679699995,0],[110.528962966,-7.36451256399994,0],[110.528914234,-7.36455780999995,0],[110.528884576,-7.36459256699993,0],[110.528878429,-7.36463614799993,0],[110.528873469,-7.36467106399994,0],[110.528865673,-7.36468988499996,0],[110.528829809,-7.36471247499998,0],[110.528778371,-7.36472340499995,0],[110.528730043,-7.36473019199997,0],[110.528694933,-7.36475560299994,0],[110.528659197,-7.36477529599995,0],[110.528612599,-7.36483000499993,0],[110.528604139,-7.36486912199996,0],[110.528603854,-7.36487003499997,0],[110.528591118,-7.36491087099995,0],[110.528573612,-7.36494657999998,0],[110.528552925,-7.36497236699995,0],[110.528516454,-7.36500134999994,0],[110.528480633,-7.36501865299994,0],[110.528423538,-7.36504293599995,0],[110.528280619,-7.36510262899998,0],[110.528240066,-7.36513940299994,0],[110.528201285,-7.36515984599993,0],[110.528195054,-7.36511444299992,0],[110.528205049,-7.36506002399994,0],[110.528192625,-7.36502592299996,0],[110.528168052,-7.36502141399995,0],[110.52814053,-7.36502593899996,0],[110.528100821,-7.36504088999993,0],[110.528057533,-7.36505713799994,0],[110.528022816,-7.36507173099994,0],[110.527985323,-7.36507608399995,0],[110.527982635,-7.36507608499994,0],[110.527951086,-7.36506593899998,0],[110.527917015,-7.36506157199995,0],[110.527872,-7.36507177599998,0],[110.52782624,-7.36508046099993,0],[110.527768901,-7.36508622499997,0],[110.527717782,-7.36508336999998,0],[110.527663712,-7.36507906899993,0],[110.527591973,-7.36507475799993,0],[110.527560812,-7.36507622099998,0],[110.527529659,-7.36508199699995,0],[110.527525463,-7.36505142699997,0],[110.527517513,-7.36500645099994,0],[110.527561592,-7.36498179599994,0],[110.527580477,-7.36496583999997,0],[110.527596962,-7.36495191099993,0],[110.527631032,-7.36491153999998,0],[110.527658284,-7.36485974999994,0],[110.527692419,-7.36477551899998,0],[110.527690592,-7.36474628799994,0],[110.527713851,-7.36471077399995,0],[110.527764174,-7.36467435899993,0],[110.527808146,-7.36463502999993,0],[110.527826898,-7.36460076799995,0],[110.527817279,-7.36456363099995,0],[110.527799753,-7.36452127999996,0],[110.527791448,-7.36447993799993,0],[110.527783584,-7.36444650999994,0],[110.52778397,-7.36440989899995,0],[110.527784317,-7.36440792399998,0],[110.527759402,-7.36437799099997,0],[110.527724039,-7.36434950699993,0],[110.527671468,-7.36433507299995,0],[110.527611203,-7.36432677399995,0],[110.5275656,-7.36431422399994,0],[110.527543169,-7.36432888399997,0],[110.52750727,-7.36435368999997,0],[110.527468983,-7.36439812299994,0],[110.527432922,-7.36442181699994,0],[110.527411403,-7.36444513199996,0],[110.527370969,-7.36448880399996,0],[110.527323484,-7.36449255499997,0],[110.527317375,-7.36449255699995,0],[110.52726239,-7.36448509599995,0],[110.527219544,-7.36448698399994,0],[110.527168428,-7.36446815699998,0],[110.527144874,-7.36449447899997,0],[110.527112498,-7.36454628899997,0],[110.527071614,-7.36457899699997,0],[110.527039521,-7.36460539099994,0],[110.526988317,-7.36463131699998,0],[110.526954603,-7.36465316699997,0],[110.526918408,-7.36467646299997,0],[110.526882727,-7.36468885499994,0],[110.526727823,-7.36476033899993,0],[110.526603311,-7.36480026899994,0],[110.526585608,-7.36480721399994,0],[110.526504353,-7.36483909099996,0],[110.52643569,-7.36485295399996,0],[110.526383562,-7.36487177899994,0],[110.526267008,-7.36489538699993,0],[110.526216472,-7.36489707199996,0],[110.526185382,-7.36482521499994,0],[110.526175688,-7.36475684399994,0],[110.526164724,-7.36470619599993,0],[110.526147905,-7.36463580899994,0],[110.526137534,-7.36454288599998,0],[110.526172325,-7.36451284599997,0],[110.526218248,-7.36447623399994,0],[110.526273656,-7.36441853399998,0],[110.526326937,-7.36436004999996,0],[110.526361373,-7.36433508799996,0],[110.52637107,-7.36432805899994,0],[110.526371366,-7.36432445999998,0],[110.526412272,-7.36427309099997,0],[110.52641893,-7.36426747599995,0],[110.526419295,-7.36426372099993,0],[110.526432514,-7.36423907299996,0],[110.526440396,-7.36417658099998,0],[110.526454398,-7.36412871099998,0],[110.526469117,-7.36407824399993,0],[110.526482237,-7.36401851899996,0],[110.526513897,-7.36397345299997,0],[110.5265478,-7.36394065999997,0],[110.526551714,-7.36390113399995,0],[110.526527666,-7.36386670299993,0],[110.526505645,-7.36385022699994,0],[110.526457618,-7.36381673099993,0],[110.526409523,-7.36375187199997,0],[110.526372784,-7.36373188399995,0],[110.526337256,-7.36371163899997,0],[110.526333889,-7.36371163999996,0],[110.526289907,-7.36371618099997,0],[110.526254715,-7.36375854099998,0],[110.526251398,-7.36375854199997,0],[110.526183309,-7.36376514999995,0],[110.526140306,-7.36372299999994,0],[110.526120074,-7.36370490999997,0],[110.526114726,-7.36369164699994,0],[110.526097204,-7.36364712099993,0],[110.526069222,-7.36359142799995,0],[110.52603554,-7.36353151299994,0],[110.525978825,-7.36347547799994,0],[110.52593132,-7.36342169699998,0],[110.525889903,-7.36338179299997,0],[110.525825522,-7.36333161799996,0],[110.52575218,-7.36329174899993,0],[110.525680184,-7.36325673599993,0],[110.525607425,-7.36322949699996,0],[110.525551444,-7.36321965499997,0],[110.525545152,-7.36321965799993,0],[110.525489881,-7.36322757099992,0],[110.52539889,-7.36322956899994,0],[110.52529431,-7.36324135099994,0],[110.525236827,-7.36323353299997,0],[110.52518408,-7.36322765799997,0],[110.525117697,-7.36323553299997,0],[110.525000166,-7.36324338399993,0],[110.524923744,-7.36325504799993,0],[110.524885017,-7.36326276899996,0],[110.524836176,-7.36326713199998,0],[110.524747821,-7.36325401099998,0],[110.524680163,-7.36324222999997,0],[110.52462541,-7.36320465599994,0],[110.524563541,-7.36316439299998,0],[110.524455169,-7.36313419299995,0],[110.52437307,-7.36308337799994,0],[110.524317122,-7.36302187499996,0],[110.524275058,-7.36295202599996,0],[110.524237708,-7.36289395699993,0],[110.524243136,-7.36279716999996,0],[110.524240761,-7.36269591599995,0],[110.524157253,-7.36265619799997,0],[110.524102434,-7.36266068399993,0],[110.524049686,-7.36267908199994,0],[110.523993357,-7.36268495499996,0],[110.523926218,-7.36268302899992,0],[110.523867165,-7.36269082899997,0],[110.523800032,-7.36271394299996,0],[110.523777135,-7.36274043599997,0],[110.523756208,-7.36278655899997,0],[110.523722593,-7.36283123499993,0],[110.523678681,-7.36285045899996,0],[110.523622812,-7.36289148299994,0],[110.523561578,-7.36292147399996,0],[110.523511509,-7.36293948499997,0],[110.523417909,-7.36295083999994,0],[110.523339526,-7.36296049699996,0],[110.523130471,-7.36297911699995,0],[110.523084907,-7.36299342799998,0],[110.523041728,-7.36301970799997,0],[110.52297455,-7.36306989599996,0],[110.522899912,-7.36312060499995,0],[110.522806677,-7.36312715599996,0],[110.522763536,-7.36311753699994,0],[110.522634102,-7.36309825299998,0],[110.522547794,-7.36310294699996,0],[110.522439959,-7.36306214599995,0],[110.522362689,-7.36304596699995,0],[110.522309056,-7.36306384699998,0],[110.522259847,-7.36307709799996,0],[110.52220411,-7.36308731599996,0],[110.522172752,-7.36314265099998,0],[110.522127814,-7.36321021599997,0],[110.52210155,-7.36325930499993,0],[110.522087288,-7.36329321199997,0],[110.522040189,-7.36334939299996,0],[110.521989008,-7.36338580199993,0],[110.521937801,-7.36341699799993,0],[110.521878338,-7.36346371699995,0],[110.521810276,-7.36351648799996,0],[110.521758351,-7.36356331099995,0],[110.521755237,-7.36358744699993,0],[110.521776941,-7.36361034199996,0],[110.521797425,-7.36363195099995,0],[110.521825109,-7.36367492999995,0],[110.521842672,-7.36370587599993,0],[110.521862337,-7.36377011899998,0],[110.521859565,-7.36377489899996,0],[110.52186307,-7.36384307199995,0],[110.521861009,-7.36390496199994,0],[110.521852311,-7.36395155499997,0],[110.521829774,-7.36399913299994,0],[110.521754103,-7.36400462199992,0],[110.521690753,-7.36400464099995,0],[110.521634193,-7.36402197399997,0],[110.52157307,-7.36406808799995,0],[110.521538425,-7.36411552199996,0],[110.521514113,-7.36415562199994,0],[110.521515255,-7.36419036499996,0],[110.521507473,-7.36422815199995,0],[110.521495737,-7.36425574199995,0],[110.521466983,-7.36426609499995,0],[110.521424064,-7.36426482799993,0],[110.521366899,-7.36426613099997,0],[110.521312342,-7.36427384699994,0],[110.521259367,-7.36428023999997,0],[110.521215374,-7.36428406299996,0],[110.521142579,-7.36428155299996,0],[110.521084413,-7.36427661499994,0],[110.521039536,-7.36429445299996,0],[110.520982668,-7.36432363399996,0],[110.520959481,-7.36433512099995,0],[110.520915488,-7.36432653299994,0],[110.520860485,-7.36432510899994,0],[110.520811029,-7.36433230299997,0],[110.520770697,-7.36432801099994,0],[110.52073653,-7.36431647499995,0],[110.520683787,-7.36429602799996,0],[110.520639906,-7.36427674299995,0],[110.520598773,-7.36426322399996,0],[110.520571176,-7.36425869499993,0],[110.520513582,-7.36425879699993,0],[110.520460381,-7.36425395199996,0],[110.520413358,-7.36425396699997,0],[110.520350012,-7.36425884699997,0],[110.520347167,-7.36425884699997,0],[110.520292599,-7.36425243399998,0],[110.520278339,-7.36425075799997,0],[110.520219849,-7.36425077499996,0],[110.520173868,-7.36425566199995,0],[110.520131318,-7.36425242799993,0],[110.520077246,-7.36424919099994,0],[110.520028738,-7.36424757499998,0],[110.520001625,-7.36424594899995,0],[110.519950874,-7.36425085399998,0],[110.519914437,-7.36426703799998,0],[110.519885694,-7.36429252199997,0],[110.519839947,-7.36432524299994,0],[110.51980388,-7.36436762699998,0],[110.519779624,-7.36437948999998,0],[110.519733441,-7.36437950299995,0],[110.5196945,-7.36439563699997,0],[110.519656768,-7.36439419099997,0],[110.519651481,-7.36439127199998,0],[110.519622183,-7.36437510099995,0],[110.519597852,-7.36436619599993,0],[110.519556627,-7.36434365699995,0],[110.519529338,-7.36432840799995,0],[110.51951785,-7.36430518699996,0],[110.519505636,-7.36425747899995,0],[110.519472052,-7.36419790399998,0],[110.519414167,-7.36419283599997,0],[110.519370072,-7.36420131499995,0],[110.519308939,-7.36420638699997,0],[110.519221809,-7.36419459199993,0],[110.519176343,-7.36418268199998,0],[110.519140765,-7.36417066499996,0],[110.519091262,-7.36419462899994,0],[110.519071266,-7.36422316899996,0],[110.519044058,-7.36426890199994,0],[110.519025437,-7.36427850699994,0],[110.518991549,-7.36427851699995,0],[110.518988725,-7.36427851699995,0],[110.518946381,-7.36428012299996,0],[110.518902637,-7.36428013599993,0],[110.518860432,-7.36429761899996,0],[110.518831434,-7.36433198499998,0],[110.518769454,-7.36435283899993,0],[110.518724912,-7.36434647599998,0],[110.518686367,-7.36435127199996,0],[110.518644428,-7.36434490099998,0],[110.518584108,-7.36433205799995,0],[110.518541771,-7.36431908599997,0],[110.518474633,-7.36431256699996,0],[110.518408305,-7.36429443799994,0],[110.518399512,-7.36428944899995,0],[110.518398063,-7.36416726999994,0],[110.518410618,-7.36405739899993,0],[110.518417454,-7.36393399899993,0],[110.518420515,-7.36385653599996,0],[110.518417965,-7.36377081499995,0],[110.518425224,-7.36367176199997,0],[110.518435317,-7.36357823399993,0],[110.518429182,-7.36340771299996,0],[110.518332596,-7.36339994399998,0],[110.518197199,-7.36338569999998,0],[110.518062547,-7.36338574099995,0],[110.518007771,-7.36337426499995,0],[110.517824581,-7.36337432199997,0],[110.51781735,-7.36337432399995,0],[110.517674617,-7.36335411799996,0],[110.517553577,-7.36335415499997,0],[110.517489723,-7.36337152399994,0],[110.517480075,-7.36337152699997,0],[110.517401959,-7.36338305799995,0],[110.517394969,-7.36338018899994,0],[110.517333007,-7.36333377599993,0],[110.517257773,-7.36333086699995,0],[110.517167662,-7.36333382699996,0],[110.517075388,-7.36332210199993,0],[110.516960657,-7.36331032499993,0],[110.516885171,-7.36331921299995,0],[110.516821884,-7.36332217999995,0],[110.516731328,-7.36331630899997,0],[110.516677637,-7.36331632599996,0],[110.516675196,-7.36331632599996,0],[110.516583571,-7.36332813699994,0],[110.516562166,-7.36328365099996,0],[110.516577755,-7.36321376099994,0],[110.516585125,-7.36315760899993,0],[110.516590402,-7.36310335799993,0],[110.516577937,-7.36302134599993,0],[110.516507393,-7.36300934899998,0],[110.516393104,-7.36300054099996,0],[110.516312544,-7.36300351699998,0],[110.51621974,-7.36299468099998,0],[110.516144074,-7.36299766299993,0],[110.516053861,-7.36300064499994,0],[110.516005399,-7.36300655899993,0],[110.515972052,-7.36294388299996,0],[110.515934368,-7.36290116699996,0],[110.515816314,-7.36288573899998,0],[110.515683723,-7.36287957399998,0],[110.515570627,-7.36286714799996,0],[110.515442041,-7.36285779999997,0],[110.515438811,-7.36288263699993,0],[110.513811425,-7.36286301899997,0],[110.51354451,-7.36031027999996,0],[110.51401558,-7.36030720199994,0],[110.514508203,-7.36032568499996,0],[110.514573023,-7.36023959799996,0],[110.514893049,-7.36025071299997,0],[110.515094406,-7.36026529099996,0],[110.515223897,-7.36023072899997,0],[110.51527881,-7.35933330199992,0],[110.515285602,-7.35859737099997,0],[110.515327911,-7.35826833999994,0],[110.515298308,-7.35793324499997,0],[110.515220605,-7.35774169799993,0],[110.51510689,-7.35759797799994,0],[110.514915246,-7.35747212099994,0],[110.514790218,-7.35714684399994,0],[110.514839,-7.35710699999993,0],[110.514945918,-7.35694522599994,0],[110.515065842,-7.35676626199995,0],[110.515227999,-7.35670900099996,0],[110.515660469,-7.35666997699997,0],[110.515976074,-7.35668006299994,0],[110.516118117,-7.35688227799994,0],[110.516297698,-7.35707991999993,0],[110.516405562,-7.35709200099996,0],[110.5164835,-7.35706815299994,0],[110.516705156,-7.35715215799996,0],[110.517591726,-7.35754202399994,0],[110.519329123,-7.35812426499996,0],[110.519640634,-7.35825024599995,0],[110.519863141,-7.35754446299995,0],[110.519923246,-7.35738297899996,0],[110.520744631,-7.35754881399993,0],[110.520621742,-7.35775986899995,0],[110.520715315,-7.35778800399993,0],[110.521870521,-7.35805249999993,0],[110.522493659,-7.35819676299997,0],[110.523337398,-7.35829339299994,0],[110.523529134,-7.35833667599996,0],[110.523548205,-7.35843721499998,0],[110.523624806,-7.35854260099995,0],[110.523749423,-7.35858102699996,0],[110.524080279,-7.35855265899994,0],[110.525063138,-7.35857763499996,0],[110.52547064,-7.35861157199997,0],[110.525537662,-7.35870737499994,0],[110.525667039,-7.35877931099998,0],[110.525820474,-7.35876990099996,0],[110.526371946,-7.35867953799993,0],[110.526674099,-7.35858891199996,0],[110.5267124,-7.35864160499995,0],[110.526907399,-7.35890859399996,0],[110.526985295,-7.35901524799993,0],[110.527205465,-7.35937447599997,0],[110.527219691,-7.35952287499993,0],[110.527214547,-7.35985314599998,0],[110.527199783,-7.36021212399993,0],[110.527175227,-7.36076255699993,0],[110.527141315,-7.36109279699997,0],[110.527116932,-7.36148048599995,0],[110.527058996,-7.36185856599997,0],[110.527605534,-7.36190222199997,0],[110.527720878,-7.36164386699994,0],[110.527836136,-7.36146688399998,0],[110.527980114,-7.36133301099994,0],[110.528100015,-7.36129963199994,0],[110.528469199,-7.36130002099998,0],[110.528637045,-7.36126669099997,0],[110.52882412,-7.36118551499993,0],[110.528910478,-7.36113295499996,0],[110.529140744,-7.36101353099997,0],[110.529275139,-7.36087486199995,0],[110.529347204,-7.36073612499996,0],[110.529395337,-7.36055907099995,0],[110.529342783,-7.36038191299997,0],[110.52929033,-7.36010902199996,0],[110.529305022,-7.35981705299997,0],[110.529329262,-7.35956338899996,0],[110.529391899,-7.35927147199993,0],[110.529464044,-7.35905615099995,0],[110.529622593,-7.35874518799994,0],[110.529795454,-7.35850125299993,0],[110.529886637,-7.35841997699993,0],[110.529982553,-7.35839614399993,0],[110.530116791,-7.35840585799997,0],[110.530246189,-7.35845864699996,0],[110.530365982,-7.35852578499993,0],[110.530533732,-7.35858339999993,0],[110.530749507,-7.35856447899994,0],[110.530902994,-7.35850720099995,0],[110.531003745,-7.35844508099996,0],[110.531133303,-7.35834469699995,0],[110.53123416,-7.35818205899994,0],[110.531339937,-7.35789975999995,0],[110.531450452,-7.35767011899998,0],[110.531460172,-7.35754567799995,0],[110.531431586,-7.35737332899993,0],[110.531441315,-7.35723931499996,0],[110.53149897,-7.35712449599993,0],[110.531595002,-7.35699057199997,0],[110.531628694,-7.35686615499998,0],[110.53162403,-7.35674169899994,0],[110.5315811,-7.35653104399995,0],[110.53153809,-7.35639697399995,0],[110.531538199,-7.35629166799993,0],[110.531605369,-7.35624865899996,0],[110.531787586,-7.35622491699996,0],[110.531974603,-7.35619639199996,0],[110.53206574,-7.35615819499998,0],[110.532142518,-7.35609604999996,0],[110.532248138,-7.35596213399998,0],[110.532392234,-7.35571338099993,0],[110.532507448,-7.35557468999997,0],[110.532603454,-7.35546469899998,0],[110.532661144,-7.35531637399993,0],[110.53270442,-7.35519675499995,0],[110.53275259,-7.35498140699997,0],[110.53275755,-7.35482345399993,0],[110.532714564,-7.35466545099996,0],[110.532623654,-7.35448825199995,0],[110.532551901,-7.35433021899996,0],[110.532537623,-7.35422968699993,0],[110.532576079,-7.35413399399994,0],[110.532612469,-7.35410378299997,0],[110.532616555,-7.35413719999997,0],[110.532622909,-7.35419091299997,0],[110.532633088,-7.35422097099996,0],[110.532693754,-7.35423704099998,0],[110.532803702,-7.35423833899995,0],[110.532896678,-7.35423030099997,0],[110.533006374,-7.35423561199997,0],[110.533136885,-7.35423290199998,0],[110.533197781,-7.35422214399995,0],[110.533249171,-7.35416837899993,0],[110.533263757,-7.35411071499993,0],[110.533277581,-7.35403787899997,0],[110.533287363,-7.35396404499994,0],[110.533279208,-7.35389983199997,0],[110.533270418,-7.35381050599995,0],[110.533325426,-7.35374248699998,0],[110.533432288,-7.35365887599994,0],[110.533458941,-7.35378474099997,0],[110.53348901,-7.35389043399994,0],[110.533535798,-7.35400260799997,0],[110.533604767,-7.35407385199994,0],[110.533637951,-7.35411875299997,0],[110.533698647,-7.35416893599995,0],[110.533747928,-7.35423279299994,0],[110.533771869,-7.35429340299993,0],[110.533788929,-7.35436842099995,0],[110.533783758,-7.35445171899994,0],[110.533783576,-7.35445305799993,0],[110.53376281,-7.35452572999998,0],[110.533800952,-7.35453074199995,0],[110.533850929,-7.35452192199995,0],[110.533885404,-7.35451303899993,0],[110.533949212,-7.35445166699998,0],[110.533981846,-7.35441632399994,0],[110.53395952,-7.35434976999994,0],[110.533922561,-7.35427180199997,0],[110.533869973,-7.35419378999995,0],[110.533791454,-7.35406125999998,0],[110.533865919,-7.35399842699996,0],[110.533931389,-7.35396206599995,0],[110.533926046,-7.35392339399993,0],[110.533884181,-7.35384432099994,0],[110.533789445,-7.35379969099995,0],[110.533693306,-7.35373661699998,0],[110.533627392,-7.35362699099994,0],[110.533626086,-7.35358213999996,0],[110.533674535,-7.35354753999997,0],[110.533807453,-7.35352396899998,0],[110.533825044,-7.35351205899997,0],[110.533843563,-7.35346961899995,0],[110.533866231,-7.35343369099996,0],[110.533883248,-7.35337492499997,0],[110.533897052,-7.35329872899996,0],[110.533945144,-7.35331354499993,0],[110.534009348,-7.35332087999996,0],[110.534082703,-7.35332085299996,0],[110.534143891,-7.35332449499998,0],[110.534241732,-7.35332994799995,0],[110.534317189,-7.35333537899993,0],[110.534404667,-7.35335697299996,0],[110.534491191,-7.35336762999998,0],[110.534516194,-7.35335693199994,0],[110.53453857,-7.35339919599994,0],[110.534599248,-7.35348814799994,0],[110.534623205,-7.35350793899994,0],[110.534649548,-7.35352970199995,0],[110.534715244,-7.35356385599994,0],[110.534786322,-7.35356383199996,0],[110.534836834,-7.35355304099994,0],[110.534882805,-7.35353277099995,0],[110.534918265,-7.35346840799997,0],[110.534937867,-7.35340054299996,0],[110.534983541,-7.35334526099996,0],[110.535030888,-7.35334336399995,0],[110.535081964,-7.35337680599997,0],[110.53510822,-7.35345539299993,0],[110.535108816,-7.35351818599997,0],[110.535131503,-7.35358449699993,0],[110.535143806,-7.35364761999995,0],[110.535162178,-7.35374587599995,0],[110.535176341,-7.35382521599996,0],[110.535169963,-7.35387458399993,0],[110.535156697,-7.35392382499998,0],[110.535159204,-7.35398917599997,0],[110.535160634,-7.35399213599993,0],[110.535175458,-7.35404283799994,0],[110.535185905,-7.35409155699995,0],[110.535186992,-7.35414874899993,0],[110.535171273,-7.35420843299994,0],[110.535152623,-7.35425448099994,0],[110.535139685,-7.35429090899993,0],[110.535118537,-7.35433910299997,0],[110.535107783,-7.35438048599997,0],[110.535111244,-7.35443380399994,0],[110.535113244,-7.35449781899996,0],[110.535109977,-7.35456524399996,0],[110.535114328,-7.35462284099998,0],[110.535109347,-7.35466696199995,0],[110.535103787,-7.35473577399995,0],[110.535101776,-7.35476590399998,0],[110.535110928,-7.35488310699998,0],[110.535136318,-7.35495363299998,0],[110.535109968,-7.35501117099994,0],[110.535129419,-7.35511120599995,0],[110.535154688,-7.35523216699994,0],[110.53518345,-7.35531372099996,0],[110.535129555,-7.35535050999994,0],[110.535073171,-7.35538311999994,0],[110.535032628,-7.35543003299995,0],[110.535011739,-7.35549638699996,0],[110.534989354,-7.35557314599993,0],[110.534977504,-7.35564739199998,0],[110.534961053,-7.35571857999997,0],[110.534973941,-7.35579189699996,0],[110.534994406,-7.35586210299994,0],[110.534984618,-7.35592017899995,0],[110.534969703,-7.35598667499994,0],[110.534961068,-7.35602215599994,0],[110.534876334,-7.35602218099996,0],[110.534826898,-7.35602720199995,0],[110.534784238,-7.35603220699994,0],[110.534774901,-7.35605530799995,0],[110.534788603,-7.35609575699993,0],[110.534799195,-7.35613989399997,0],[110.534809824,-7.35618166499995,0],[110.534801108,-7.35621810099997,0],[110.53478044,-7.35624871899995,0],[110.534747607,-7.35625377599996,0],[110.534712127,-7.35626383599993,0],[110.534687821,-7.35628210999994,0],[110.534665564,-7.35628870899995,0],[110.534631837,-7.35631806199996,0],[110.534612802,-7.35630836699994,0],[110.534584254,-7.35630645799995,0],[110.534545826,-7.35631984999998,0],[110.534507288,-7.35635380699995,0],[110.534491143,-7.35639807099994,0],[110.534511479,-7.35644299499995,0],[110.534525238,-7.35647113799996,0],[110.534538258,-7.35649021799998,0],[110.534582463,-7.35649709099994,0],[110.534610379,-7.35650391999997,0],[110.534645944,-7.35652675899996,0],[110.534653095,-7.35655117999994,0],[110.534650398,-7.35658444599994,0],[110.534634714,-7.35662604599997,0],[110.534624968,-7.35668963299997,0],[110.534630007,-7.35674401999995,0],[110.5346293,-7.35678715799997,0],[110.534622783,-7.35681025799994,0],[110.534585391,-7.35680835599993,0],[110.534561613,-7.35683307799997,0],[110.534547577,-7.35687043799993,0],[110.534516763,-7.35691063399997,0],[110.5344886,-7.35695343899994,0],[110.534460329,-7.35698485299997,0],[110.534423904,-7.35701229599994,0],[110.534448098,-7.35703702099994,0],[110.534465812,-7.35708563099996,0],[110.53446689,-7.35712392999994,0],[110.534462956,-7.35716316099996,0],[110.534456437,-7.35722889699997,0],[110.534450274,-7.35726195199993,0],[110.534442799,-7.35729795399993,0],[110.534488496,-7.35735948299993,0],[110.534497117,-7.35741117199996,0],[110.534506973,-7.35745782299995,0],[110.534529671,-7.35749631999994,0],[110.534628749,-7.35755058799998,0],[110.534666213,-7.35758325899997,0],[110.534679728,-7.35761445299994,0],[110.534315917,-7.35828889099997,0],[110.53439697,-7.35848346799997,0],[110.534460311,-7.35861740999997,0],[110.534487602,-7.35872880099993,0],[110.53450492,-7.35879488299997,0]]]]}}]
}